ONEWEB-0267             
1 48985U 21060U   25074.57509623 -.00000344  00000+0 -93406-3 0  9995
2 48985  87.9090 320.1933 0002035  79.2712 280.8647 13.16593669180539
ONEWEB-0268             
1 48986U 21060V   25074.16344700  .00000008  00000+0 -12503-4 0  9990
2 48986  87.9094 320.2817 0001844  84.5984 275.5358 13.16592896180747
ONEWEB-0269             
1 48987U 21060W   25074.22045378  .00000137  00000+0  32583-3 0  9998
2 48987  87.9097 320.3041 0001716  82.6261 277.5065 13.16596557180538
ONEWEB-0270             
1 48988U 21060X   25073.70592009  .00000032  00000+0  50654-4 0  9993
2 48988  87.9094 320.3778 0002103  72.9351 287.2010 13.16595780179203
ONEWEB-0271             
1 48989U 21060Y   25074.37719632  .00000118  00000+0  27524-3 0  9995
2 48989  87.9094 320.2242 0002011  77.6975 282.4381 13.16596623180589
ONEWEB-0272             
1 48990U 21060Z   25074.09536993 -.00000001  00000+0 -37495-4 0  9995
2 48990  87.9095 320.3121 0001985  78.9134 281.2220 13.16596916180505
ONEWEB-0273             
1 48991U 21060AA  25074.42153024  .00000056  00000+0  11384-3 0  9999
2 48991  87.9088 320.2322 0001864  75.0741 285.0597 13.16593007180527
ONEWEB-0274             
1 48992U 21060AB  25073.91487665 -.00000137  00000+0 -39318-3 0  9993
2 48992  87.9108 320.3654 0002217  90.6828 269.4557 13.16599122180494
